{"type":"Feature","properties":{"featurecla":"Admin-0 country","scalerank":1,"LABELRANK":2,"SOVEREIGNT":"Brazil","SOV_A3":"BRA","ADM0_DIF":0,"LEVEL":2,"TYPE":"Sovereign country","TLC":"1","ADMIN":"Brazil","ADM0_A3":"BRA","GEOU_DIF":0,"GEOUNIT":"Brazil","GU_A3":"BRA","SU_DIF":0,"SUBUNIT":"Brazil","SU_A3":"BRA","BRK_DIFF":0,"NAME":"Brazil","NAME_LONG":"Brazil","BRK_A3":"BRA","BRK_NAME":"Brazil","BRK_GROUP":null,"ABBREV":"Brazil","POSTAL":"BR","FORMAL_EN":"Federative Republic of Brazil","FORMAL_FR":null,"NAME_CIAWF":"Brazil","NOTE_ADM0":null,"NOTE_BRK":null,"NAME_SORT":"Brazil","NAME_ALT":null,"MAPCOLOR7":5,"MAPCOLOR8":6,"MAPCOLOR9":5,"MAPCOLOR13":7,"POP_EST":211049527,"POP_RANK":17,"POP_YEAR":2019,"GDP_MD":1839758,"GDP_YEAR":2019,"ECONOMY":"3. Emerging region: BRIC","INCOME_GRP":"3. Upper middle income","FIPS_10":"BR","ISO_A2":"BR","ISO_A2_EH":"BR","ISO_A3":"BRA","ISO_A3_EH":"BRA","ISO_N3":"076","ISO_N3_EH":"076","UN_A3":"076","WB_A2":"BR","WB_A3":"BRA","WOE_ID":23424768,"WOE_ID_EH":23424768,"WOE_NOTE":"Exact WOE match as country","ADM0_ISO":"BRA","ADM0_DIFF":null,"ADM0_TLC":"BRA","ADM0_A3_US":"BRA","ADM0_A3_FR":"BRA","ADM0_A3_RU":"BRA","ADM0_A3_ES":"BRA","ADM0_A3_CN":"BRA","ADM0_A3_TW":"BRA","ADM0_A3_IN":"BRA","ADM0_A3_NP":"BRA","ADM0_A3_PK":"BRA","ADM0_A3_DE":"BRA","ADM0_A3_GB":"BRA","ADM0_A3_BR":"BRA","ADM0_A3_IL":"BRA","ADM0_A3_PS":"BRA","ADM0_A3_SA":"BRA","ADM0_A3_EG":"BRA","ADM0_A3_MA":"BRA","ADM0_A3_PT":"BRA","ADM0_A3_AR":"BRA","ADM0_A3_JP":"BRA","ADM0_A3_KO":"BRA","ADM0_A3_VN":"BRA","ADM0_A3_TR":"BRA","ADM0_A3_ID":"BRA","ADM0_A3_PL":"BRA","ADM0_A3_GR":"BRA","ADM0_A3_IT":"BRA","ADM0_A3_NL":"BRA","ADM0_A3_SE":"BRA","ADM0_A3_BD":"BRA","ADM0_A3_UA":"BRA","ADM0_A3_UN":-99,"ADM0_A3_WB":-99,"CONTINENT":"South America","REGION_UN":"Americas","SUBREGION":"South America","REGION_WB":"Latin America & Caribbean","NAME_LEN":6,"LONG_LEN":6,"ABBREV_LEN":6,"TINY":-99,"HOMEPART":1,"MIN_ZOOM":0,"MIN_LABEL":1.7,"MAX_LABEL":5.7,"LABEL_X":-49.55945,"LABEL_Y":-12.098687,"NE_ID":1159320441,"WIKIDATAID":"Q155","NAME_AR":"البرازيل","NAME_BN":"ব্রাজিল","NAME_DE":"Brasilien","NAME_EN":"Brazil","NAME_ES":"Brasil","NAME_FA":"برزیل","NAME_FR":"Brésil","NAME_EL":"Βραζιλία","NAME_HE":"ברזיל","NAME_HI":"ब्राज़ील","NAME_HU":"Brazília","NAME_ID":"Brasil","NAME_IT":"Brasile","NAME_JA":"ブラジル","NAME_KO":"브라질","NAME_NL":"Brazilië","NAME_PL":"Brazylia","NAME_PT":"Brasil","NAME_RU":"Бразилия","NAME_SV":"Brasilien","NAME_TR":"Brezilya","NAME_UK":"Бразилія","NAME_UR":"برازیل","NAME_VI":"Brasil","NAME_ZH":"巴西","NAME_ZHT":"巴西","FCLASS_ISO":"Admin-0 country","TLC_DIFF":null,"FCLASS_TLC":"Admin-0 country","FCLASS_US":null,"FCLASS_FR":null,"FCLASS_RU":null,"FCLASS_ES":null,"FCLASS_CN":null,"FCLASS_TW":null,"FCLASS_IN":null,"FCLASS_NP":null,"FCLASS_PK":null,"FCLASS_DE":null,"FCLASS_GB":null,"FCLASS_BR":null,"FCLASS_IL":null,"FCLASS_PS":null,"FCLASS_SA":null,"FCLASS_EG":null,"FCLASS_MA":null,"FCLASS_PT":null,"FCLASS_AR":null,"FCLASS_JP":null,"FCLASS_KO":null,"FCLASS_VN":null,"FCLASS_TR":null,"FCLASS_ID":null,"FCLASS_PL":null,"FCLASS_GR":null,"FCLASS_IT":null,"FCLASS_NL":null,"FCLASS_SE":null,"FCLASS_BD":null,"FCLASS_UA":null},"bbox":[-73.987235,-33.768378,-34.729993,5.244486],"geometry":{"type":"Polygon","coordinates":[[[-53.373662,-33.768378],[-53.650544,-33.202004],[-53.209589,-32.727666],[-53.787952,-32.047243],[-54.572452,-31.494511],[-55.60151,-30.853879],[-55.973245,-30.883076],[-56.976026,-30.109686],[-57.625133,-30.216295],[-56.2909,-28.852761],[-55.162286,-27.881915],[-54.490725,-27.474757],[-53.648735,-26.923473],[-53.628349,-26.124865],[-54.13005,-25.547639],[-54.625291,-25.739255],[-54.428946,-25.162185],[-54.293476,-24.5708],[-54.29296,-24.021014],[-54.652834,-23.839578],[-55.027902,-24.001274],[-55.400747,-23.956935],[-55.517639,-23.571998],[-55.610683,-22.655619],[-55.797958,-22.35693],[-56.473317,-22.0863],[-56.88151,-22.282154],[-57.937156,-22.090176],[-57.870674,-20.732688],[-58.166392,-20.176701],[-57.853802,-19.969995],[-57.949997,-19.400004],[-57.676009,-18.96184],[-57.498371,-18.174188],[-57.734558,-17.552468],[-58.280804,-17.27171],[-58.388058,-16.877109],[-58.24122,-16.299573],[-60.15839,-16.258284],[-60.542966,-15.09391],[-60.251149,-15.077219],[-60.264326,-14.645979],[-60.459198,-14.354007],[-60.503304,-13.775955],[-61.084121,-13.479384],[-61.713204,-13.489202],[-62.127081,-13.198781],[-62.80306,-13.000653],[-63.196499,-12.627033],[-64.316353,-12.461978],[-65.402281,-11.56627],[-65.321899,-10.895872],[-65.444837,-10.511451],[-65.338435,-9.761988],[-66.646908,-9.931331],[-67.173801,-10.306812],[-68.048192,-10.712059],[-68.271254,-11.014521],[-68.786158,-11.03638],[-69.529678,-10.951734],[-70.093752,-11.123972],[-70.548686,-11.009147],[-70.481894,-9.490118],[-71.302412,-10.079436],[-72.184891,-10.053598],[-72.563033,-9.520194],[-73.226713,-9.462213],[-73.015383,-9.032833],[-73.571059,-8.424447],[-73.987235,-7.52383],[-73.723401,-7.340999],[-73.724487,-6.918595],[-73.120027,-6.629931],[-73.219711,-6.089189],[-72.964507,-5.741251],[-72.891928,-5.274561],[-71.748406,-4.593983],[-70.928843,-4.401591],[-70.794769,-4.251265],[-69.893635,-4.298187],[-69.444102,-1.556287],[-69.420486,-1.122619],[-69.577065,-0.549992],[-70.020656,-0.185156],[-70.015566,0.541414],[-69.452396,0.706159],[-69.252434,0.602651],[-69.218638,0.985677],[-69.804597,1.089081],[-69.816973,1.714805],[-67.868565,1.692455],[-67.53781,2.037163],[-67.259998,1.719999],[-67.065048,1.130112],[-66.876326,1.253361],[-66.325765,0.724452],[-65.548267,0.789254],[-65.354713,1.095282],[-64.611012,1.328731],[-64.199306,1.492855],[-64.083085,1.916369],[-63.368788,2.2009],[-63.422867,2.411068],[-64.269999,2.497006],[-64.408828,3.126786],[-64.368494,3.79721],[-64.816064,4.056445],[-64.628659,4.148481],[-63.888343,4.02053],[-63.093198,3.770571],[-62.804533,4.006965],[-62.08543,4.162124],[-60.966893,4.536468],[-60.601179,4.918098],[-60.733574,5.200277],[-60.213683,5.244486],[-59.980959,5.014061],[-60.111002,4.574967],[-59.767406,4.423503],[-59.53804,3.958803],[-59.815413,3.606499],[-59.974525,2.755233],[-59.718546,2.24963],[-59.646044,1.786894],[-59.030862,1.317698],[-58.540013,1.268088],[-58.429477,1.463942],[-58.11345,1.507195],[-57.660971,1.682585],[-57.335823,1.948538],[-56.782704,1.863711],[-56.539386,1.899523],[-55.995698,1.817667],[-55.9056,2.021996],[-56.073342,2.220795],[-55.973322,2.510364],[-55.569755,2.421506],[-55.097587,2.523748],[-54.524754,2.311849],[-54.088063,2.105557],[-53.778521,2.376703],[-53.554839,2.334897],[-53.418465,2.053389],[-52.939657,2.124858],[-52.556425,2.504705],[-52.249338,3.241094],[-51.657797,4.156232],[-51.317146,4.203491],[-51.069771,3.650398],[-50.508875,1.901564],[-49.974076,1.736483],[-49.947101,1.04619],[-50.699251,0.222984],[-50.388211,-0.078445],[-48.620567,-0.235489],[-48.584497,-1.237805],[-47.824956,-0.581618],[-46.566584,-0.941028],[-44.905703,-1.55174],[-44.417619,-2.13775],[-44.581589,-2.691308],[-43.418791,-2.38311],[-41.472657,-2.912018],[-39.978665,-2.873054],[-38.500383,-3.700652],[-37.223252,-4.820946],[-36.452937,-5.109404],[-35.597796,-5.149504],[-35.235389,-5.464937],[-34.89603,-6.738193],[-34.729993,-7.343221],[-35.128212,-8.996401],[-35.636967,-9.649282],[-37.046519,-11.040721],[-37.683612,-12.171195],[-38.423877,-13.038119],[-38.673887,-13.057652],[-38.953276,-13.79337],[-38.882298,-15.667054],[-39.161092,-17.208407],[-39.267339,-17.867746],[-39.583521,-18.262296],[-39.760823,-19.599113],[-40.774741,-20.904512],[-40.944756,-21.937317],[-41.754164,-22.370676],[-41.988284,-22.97007],[-43.074704,-22.967693],[-44.647812,-23.351959],[-45.352136,-23.796842],[-46.472093,-24.088969],[-47.648972,-24.885199],[-48.495458,-25.877025],[-48.641005,-26.623698],[-48.474736,-27.175912],[-48.66152,-28.186135],[-48.888457,-28.674115],[-49.587329,-29.224469],[-50.696874,-30.984465],[-51.576226,-31.777698],[-52.256081,-32.24537],[-52.7121,-33.196578],[-53.373662,-33.768378]]]}}
